[
  {
    "name": "ONEWEB-0205             \r",
    "tleLine1": "1 48226U 21031S   24299.55796332 -.00000039  00000+0 -13991-3 0  9994\r",
    "tleLine2": "2 48226  87.9016  48.9306 0001503  98.8567 261.2732 13.14500079169501\r"
  },
  {
    "name": "ONEWEB-0206             \r",
    "tleLine1": "1 48227U 21031T   24298.76983458  .00000225  00000+0  57344-3 0  9999\r",
    "tleLine2": "2 48227  87.9016  49.0742 0001404  96.3496 263.7794 13.14500761169347\r"
  },
  {
    "name": "ONEWEB-0182             \r",
    "tleLine1": "1 48228U 21031U   24298.76508151  .00000236  00000+0  60313-3 0  9995\r",
    "tleLine2": "2 48228  87.9019  49.1079 0001631 104.8024 255.3287 13.14501021169556\r"
  },
  {
    "name": "ONEWEB-0186             \r",
    "tleLine1": "1 48229U 21031V   24298.70006790  .00000091  00000+0  20971-3 0  9997\r",
    "tleLine2": "2 48229  87.9019  49.0837 0001668  96.8611 263.2708 13.14502220169491\r"
  },
  {
    "name": "ONEWEB-0181             \r",
    "tleLine1": "1 48230U 21031W   24298.75398726  .00000202  00000+0  51014-3 0  9993\r",
    "tleLine2": "2 48230  87.9018  49.1436 0001676  94.4372 265.6949 13.14501997169353\r"
  },
  {
    "name": "ONEWEB-0188             \r",
    "tleLine1": "1 48231U 21031X   24298.71590914 -.00000183  00000+0 -52709-3 0  9995\r",
    "tleLine2": "2 48231  87.9017  49.1447 0001615  99.3472 260.7841 13.14499720169259\r"
  },
  {
    "name": "ONEWEB-0220             \r",
    "tleLine1": "1 48232U 21031Y   24298.75556876 -.00001428  00000+0 -38851-2 0  9993\r",
    "tleLine2": "2 48232  87.9009  49.0941 0001619 107.7733 252.3573 13.14510172169521\r"
  },
  {
    "name": "ONEWEB-0165             \r",
    "tleLine1": "1 48233U 21031Z   24298.70799459 -.00000027  00000+0 -10622-3 0  9996\r",
    "tleLine2": "2 48233  87.9020  49.1288 0001572  93.7989 266.3321 13.14502378169474\r"
  }
]